H1 CPF  1  HTS 2022 12 25 12  8591 larets           NONE
H2  0304206 5557    27944 2022 12 25  0  0  0 2022 12 30  0  0  0   180 1 1  0 0 0
H5  0.0560 
H9 
10 0 59941   9000.00000  0    4926633.486   -1020524.543    4935210.900
10 0 59941   9180.00000  0    3861457.912   -1129658.825    5784946.404
10 0 59941   9360.00000  0    2653344.663   -1167703.780    6421907.069
10 0 59941   9540.00000  0    1348410.644   -1130155.389    6822848.667
10 0 59941   9720.00000  0      -3701.121   -1016524.139    6973227.767
10 0 59941   9900.00000  0   -1351745.220    -830410.871    6867690.570
10 0 59941  10080.00000  0   -2644829.196    -579386.940    6510233.808
10 0 59941  10260.00000  0   -3834338.708    -274682.633    5914046.268
10 0 59941  10440.00000  0   -4875778.231      69303.940    5101035.741
10 0 59941  10620.00000  0   -5730464.587     435658.764    4101041.869
10 0 59941  10800.00000  0   -6367002.349     805739.469    2950752.757
10 0 59941  10980.00000  0   -6762478.799    1160065.971    1692361.002
10 0 59941  11160.00000  0   -6903326.749    1479271.914     372000.873
10 0 59941  11340.00000  0   -6785808.395    1745069.502    -961977.305
10 0 59941  11520.00000  0   -6416088.771    1941176.914   -2260818.903
10 0 59941  11700.00000  0   -5809903.586    2054161.459   -3477178.931
10 0 59941  11880.00000  0   -4991839.610    2074156.455   -4566864.325
10 0 59941  12060.00000  0   -3994271.551    1995413.266   -5490422.777
10 0 59941  12240.00000  0   -2856025.107    1816669.001   -6214520.833
10 0 59941  12420.00000  0   -1620837.174    1541318.668   -6713078.886
10 0 59941  12600.00000  0    -335673.722    1177387.119   -6968139.342
10 0 59941  12780.00000  0     951024.960     737304.538   -6970453.570
10 0 59941  12960.00000  0    2191120.145     237495.355   -6719796.697
10 0 59941  13140.00000  0    3338533.916    -302213.748   -6224998.291
10 0 59941  13320.00000  0    4350935.393    -859350.043   -5503680.257
10 0 59941  13500.00000  0    5191304.635   -1409695.297   -4581705.708
10 0 59941  13680.00000  0    5829329.282   -1928305.961   -3492337.933
10 0 59941  13860.00000  0    6242572.061   -2390614.488   -2275109.711
10 0 59941  14040.00000  0    6417348.619   -2773564.750    -974426.317
10 0 59941  14220.00000  0    6349261.648   -3056725.229     362055.097
10 0 59941  14400.00000  0    6043354.197   -3223320.809    1685208.495
10 0 59941  14580.00000  0    5513861.401   -3261124.376    2946310.310
10 0 59941  14760.00000  0    4783561.283   -3163154.710    4098905.723
10 0 59941  14940.00000  0    3882766.706   -2928139.972    5100576.402
10 0 59941  15120.00000  0    2848016.286   -2560728.870    5914535.658
10 0 59941  15300.00000  0    1720529.068   -2071436.374    6510983.337
10 0 59941  15480.00000  0     544509.111   -1476332.234    6868173.253
10 0 59941  15660.00000  0    -634625.252    -796490.144    6973168.886
10 0 59941  15840.00000  0   -1772013.810     -57219.699    6822274.187
10 0 59941  16020.00000  0   -2825066.498     712889.466    6421140.294
10 0 59941  16200.00000  0   -3755062.380    1483079.812    5784550.554
10 0 59941  16380.00000  0   -4528586.126    2221655.941    4935889.096
10 0 59941  16560.00000  0   -5118754.452    2897291.137    3906300.782
10 0 59941  16740.00000  0   -5506179.467    3480358.430    2733558.332
10 0 59941  16920.00000  0   -5679628.409    3944227.247    1460676.252
10 0 59941  17100.00000  0   -5636351.529    4266467.836     134313.998
10 0 59941  17280.00000  0   -5382054.432    4429896.820   -1196970.509
10 0 59941  17460.00000  0   -4930520.151    4423412.871   -2484538.547
10 0 59941  17640.00000  0   -4302896.908    4242577.382   -3681483.317
10 0 59941  17820.00000  0   -3526693.849    3889910.337   -4744347.562
10 0 59941  18000.00000  0   -2634549.100    3374898.349   -5634674.363
10 0 59941  18180.00000  0   -1662842.177    2713725.925   -6320342.856
10 0 59941  18360.00000  0    -650210.268    1928746.242   -6776660.458
10 0 59941  18540.00000  0     363970.199    1047715.024   -6987181.510
10 0 59941  18720.00000  0    1341078.247     102821.687   -6944249.150
10 0 59941  18900.00000  0    2244682.175    -870456.589   -6649258.678
10 0 59941  19080.00000  0    3041868.740   -1834648.887   -6112631.522
10 0 59941  19260.00000  0    3704431.342   -2751694.725   -5353504.149
10 0 59941  19440.00000  0    4209887.134   -3584427.152   -4399128.875
10 0 59941  19620.00000  0    4542279.188   -4298083.983   -3283974.343
10 0 59941  19800.00000  0    4692729.122   -4861780.975   -2048547.423
10 0 59941  19980.00000  0    4659713.381   -5249886.300    -737955.943
10 0 59941  20160.00000  0    4449031.704   -5443221.467     599747.509
10 0 59941  20340.00000  0    4073459.559   -5430014.213    1915373.031
10 0 59941  20520.00000  0    3552096.212   -5206544.465    3160470.782
10 0 59941  20700.00000  0    2909439.062   -4777444.761    4289183.513
10 0 59941  20880.00000  0    2174238.705   -4155639.324    5259989.229
10 0 59941  21060.00000  0    1378197.635   -3361926.389    6037256.608
10 0 59941  21240.00000  0     554579.087   -2424229.472    6592551.734
10 0 59941  21420.00000  0    -263204.694   -1376560.079    6905648.860
10 0 59941  21600.00000  0   -1042957.834    -257743.557    6965228.095
10 0 59941  21780.00000  0   -1754970.860     890046.981    6769253.117
10 0 59941  21960.00000  0   -2373153.751    2022895.371    6325020.543
10 0 59941  22140.00000  0   -2875994.119    3096830.159    5648885.778
10 0 59941  22320.00000  0   -3247310.700    4069541.298    4765674.999
10 0 59941  22500.00000  0   -3476780.058    4902066.627    3707793.527
10 0 59941  22680.00000  0   -3560213.441    5560382.228    2514048.187
10 0 59941  22860.00000  0   -3499569.578    6016822.661    1228217.176
10 0 59941  23040.00000  0   -3302703.632    6251260.811    -102576.675
10 0 59941  23220.00000  0   -2982865.737    6251995.021   -1429627.516
10 0 59941  23400.00000  0   -2557972.121    6016287.949   -2704475.262
10 0 59941  23580.00000  0   -2049682.350    5550523.738   -3880706.351
10 0 59941  23760.00000  0   -1482344.789    4869995.324   -4915640.611
10 0 59941  23940.00000  0    -881868.809    3998342.323   -5771847.157
10 0 59941  24120.00000  0    -274576.436    2966679.557   -6418442.865
10 0 59941  24300.00000  0     313919.605    1812452.334   -6832140.005
10 0 59941  24480.00000  0     859762.187     578073.004   -6998017.118
10 0 59941  24660.00000  0    1341786.375    -690611.992   -6910012.910
10 0 59941  24840.00000  0    1742318.758   -1945982.780   -6571134.320
10 0 59941  25020.00000  0    2047815.524   -3140383.826   -5993379.230
10 0 59941  25200.00000  0    2249325.735   -4227899.696   -5197378.581
10 0 59941  25380.00000  0    2342762.463   -5166123.423   -4211740.958
10 0 59941  25560.00000  0    2328967.172   -5917840.994   -3072102.782
10 0 59941  25740.00000  0    2213561.527   -6452572.682   -1819903.370
10 0 59941  25920.00000  0    2006585.273   -6747894.408    -500904.588
10 0 59941  26100.00000  0    1721932.881   -6790457.780     836498.970
10 0 59941  26280.00000  0    1376611.749   -6576641.269    2143105.951
10 0 59941  26460.00000  0     989859.340   -6112792.695    3370790.026
10 0 59941  26640.00000  0     582164.528   -5415036.760    4474341.489
10 0 59941  26820.00000  0     174248.522   -4508669.554    5413179.689
10 0 59941  27000.00000  0    -213939.725   -3427173.059    6152867.563
10 0 59941  27180.00000  0    -564159.889   -2210899.939    6666367.443
10 0 59941  27360.00000  0    -860706.902    -905503.861    6934994.477
10 0 59941  27540.00000  0   -1091094.124     439813.181    6949060.202
10 0 59941  27720.00000  0   -1246568.877    1774180.947    6708193.508
10 0 59941  27900.00000  0   -1322440.357    3046997.870    6221332.059
10 0 59941  28080.00000  0   -1318212.236    4209859.848    5506391.133
10 0 59941  28260.00000  0   -1237517.202    5218417.968    4589618.578
10 0 59941  28440.00000  0   -1087857.364    6034101.267    3504648.812
10 0 59941  28620.00000  0    -880162.491    6625631.606    2291278.451
10 0 59941  28800.00000  0    -628187.057    6970270.086     994000.069
10 0 59941  28980.00000  0    -347765.961    7054722.413    -339658.007
10 0 59941  29160.00000  0     -55972.270    6875660.822   -1660910.309
10 0 59941  29340.00000  0     229777.329    6439830.456   -2921540.751
10 0 59941  29520.00000  0     492618.370    5763739.011   -4075682.324
10 0 59941  29700.00000  0     717094.887    4872965.556   -5081479.923
10 0 59941  29880.00000  0     889936.454    3801125.592   -5902575.373
10 0 59941  30060.00000  0    1000718.566    2588550.066   -6509364.615
10 0 59941  30240.00000  0    1042378.227    1280742.103   -6879994.805
10 0 59941  30420.00000  0    1011568.145     -73320.368   -7001085.850
10 0 59941  30600.00000  0     908838.423   -1422982.943   -6868173.775
10 0 59941  30780.00000  0     738639.242   -2717759.763   -6485866.663
10 0 59941  30960.00000  0     509146.711   -3909173.743   -5867721.883
10 0 59941  31140.00000  0     231911.693   -4952555.792   -5035835.625
10 0 59941  31320.00000  0     -78657.238   -5808737.922   -4020135.213
10 0 59941  31500.00000  0    -405963.233   -6445581.779   -2857382.178
10 0 59941  31680.00000  0    -732018.593   -6839272.324   -1589897.087
10 0 59941  31860.00000  0   -1038336.022   -6975309.325    -264037.295
10 0 59941  32040.00000  0   -1306870.085   -6849129.278    1071522.748
10 0 59941  32220.00000  0   -1520960.507   -6466314.194    2367632.252
10 0 59941  32400.00000  0   -1666225.271   -5842367.200    3576544.739
10 0 59941  32580.00000  0   -1731350.653   -5002058.800    4653745.589
10 0 59941  32760.00000  0   -1708734.622   -3978384.921    5559634.985
10 0 59941  32940.00000  0   -1594955.637   -2811199.955    6261001.140
10 0 59941  33120.00000  0   -1391040.404   -1545590.520    6732224.975
10 0 59941  33300.00000  0   -1102522.060    -230080.563    6956181.185
99
